{
  "type": "FeatureCollection",
  "features": [
    {
      "type": "Feature",
      "properties": {
        "norad_id": 66549,
        "name": "SHIJIAN-28 (SJ-28)",
        "group": "last-30-days",
        "lat": 1.9111830854051373,
        "lon": -62.50739766817527,
        "alt_km": 35788.967576061805,
        "timestamp": "2025-12-24T05:51:18.323320+00:00",
        "meta_object_name": "SHIJIAN-28 (SJ-28)",
        "meta_object_id": "2025-277A",
        "meta_epoch": "2025-12-23T18:49:26.581152",
        "meta_mean_motion": 1.00265987,
        "meta_eccentricity": 0.0001017,
        "meta_inclination": 4.9916,
        "meta_ra_of_asc_node": 274.783,
        "meta_arg_of_pericenter": 131.9784,
        "meta_mean_anomaly": 84.9264,
        "meta_ephemeris_type": 0,
        "meta_classification_type": "U",
        "meta_norad_cat_id": 66549,
        "meta_element_set_no": 999,
        "meta_rev_at_epoch": 39,
        "meta_bstar": 0,
        "meta_mean_motion_dot": -3.37e-06,
        "meta_mean_motion_ddot": 0,
        "tle_line1": "1 66549U 25277A   25357.78433543 -.00000337  00000+0  00000+0 0  9994",
        "tle_line2": "2 66549   4.9916 274.7830 0001017 131.9784  84.9264  1.00265987   397"
      },
      "geometry": {
        "type": "Point",
        "coordinates": [
          -62.50739766817527,
          1.9111830854051373
        ]
      }
    },
    {
      "type": "Feature",
      "properties": {
        "norad_id": 66550,
        "name": "CZ-7A R/B",
        "group": "last-30-days",
        "lat": 9.60687504231696,
        "lon": -55.291948967789466,
        "alt_km": 20557.280591908613,
        "timestamp": "2025-12-24T05:51:18.323370+00:00",
        "meta_object_name": "CZ-7A R/B",
        "meta_object_id": "2025-277B",
        "meta_epoch": "2025-12-23T05:53:12.433056",
        "meta_mean_motion": 3.27661077,
        "meta_eccentricity": 0.66094342,
        "meta_inclination": 14.3426,
        "meta_ra_of_asc_node": 263.9223,
        "meta_arg_of_pericenter": 200.4471,
        "meta_mean_anomaly": 110.5172,
        "meta_ephemeris_type": 0,
        "meta_classification_type": "U",
        "meta_norad_cat_id": 66550,
        "meta_element_set_no": 999,
        "meta_rev_at_epoch": 65,
        "meta_bstar": 0.0068493476,
        "meta_mean_motion_dot": 0.10979967,
        "meta_mean_motion_ddot": 1.8894821e-05,
        "tle_line1": "1 66550U 25277B   25357.24528279  .10979967  18895-4  68493-2 0  9991",
        "tle_line2": "2 66550  14.3426 263.9223 6609434 200.4471 110.5172  3.27661077   658"
      },
      "geometry": {
        "type": "Point",
        "coordinates": [
          -55.291948967789466,
          9.60687504231696
        ]
      }
    },
    {
      "type": "Feature",
      "properties": {
        "norad_id": 66554,
        "name": "GLOBAL-33",
        "group": "last-30-days",
        "lat": -20.840242572543847,
        "lon": -164.4153103022796,
        "alt_km": 470.24139690688025,
        "timestamp": "2025-12-24T05:51:18.323398+00:00",
        "meta_object_name": "GLOBAL-33",
        "meta_object_id": "2025-267A",
        "meta_epoch": "2025-12-23T22:40:26.978016",
        "meta_mean_motion": 15.31714387,
        "meta_eccentricity": 0.0004481,
        "meta_inclination": 42.0211,
        "meta_ra_of_asc_node": 352.304,
        "meta_arg_of_pericenter": 170.013,
        "meta_mean_anomaly": 190.0798,
        "meta_ephemeris_type": 0,
        "meta_classification_type": "U",
        "meta_norad_cat_id": 66554,
        "meta_element_set_no": 999,
        "meta_rev_at_epoch": 512,
        "meta_bstar": 0.00043448475,
        "meta_mean_motion_dot": 0.00013368,
        "meta_mean_motion_ddot": 0,
        "tle_line1": "1 66554U 25267A   25357.94475669  .00013368  00000+0  43448-3 0  9996",
        "tle_line2": "2 66554  42.0211 352.3040 0004481 170.0130 190.0798 15.31714387  5126"
      },
      "geometry": {
        "type": "Point",
        "coordinates": [
          -164.4153103022796,
          -20.840242572543847
        ]
      }
    },
    {
      "type": "Feature",
      "properties": {
        "norad_id": 66557,
        "name": "STARLINK-35699",
        "group": "last-30-days",
        "lat": -10.342299477102442,
        "lon": 42.55164331427088,
        "alt_km": 433.2935744021497,
        "timestamp": "2025-12-24T05:51:18.323412+00:00",
        "meta_object_name": "STARLINK-35699",
        "meta_object_id": "2025-268A",
        "meta_epoch": "2025-12-24T00:00:00.999648",
        "meta_mean_motion": 15.45704467,
        "meta_eccentricity": 0.00016312,
        "meta_inclination": 43.0004,
        "meta_ra_of_asc_node": 55.2608,
        "meta_arg_of_pericenter": 281.4437,
        "meta_mean_anomaly": 144.7751,
        "meta_ephemeris_type": 0,
        "meta_classification_type": "U",
        "meta_norad_cat_id": 66557,
        "meta_element_set_no": 999,
        "meta_rev_at_epoch": 610,
        "meta_bstar": -0.049085189,
        "meta_mean_motion_dot": -0.021466,
        "meta_mean_motion_ddot": 0,
        "tle_line1": "1 66557U 25268A   25358.00001157 -.02146600  00000+0 -49085-1 0  9996",
        "tle_line2": "2 66557  43.0004  55.2608 0001631 281.4437 144.7751 15.45704467  6107"
      },
      "geometry": {
        "type": "Point",
        "coordinates": [
          42.55164331427088,
          -10.342299477102442
        ]
      }
    },
    {
      "type": "Feature",
      "properties": {
        "norad_id": 66558,
        "name": "STARLINK-35695",
        "group": "last-30-days",
        "lat": -3.9041392955335947,
        "lon": 49.62180103274613,
        "alt_km": 430.4454083316414,
        "timestamp": "2025-12-24T05:51:18.323424+00:00",
        "meta_object_name": "STARLINK-35695",
        "meta_object_id": "2025-268B",
        "meta_epoch": "2025-12-24T00:00:00.999648",
        "meta_mean_motion": 15.46485002,
        "meta_eccentricity": 0.00014273,
        "meta_inclination": 43.0006,
        "meta_ra_of_asc_node": 55.2389,
        "meta_arg_of_pericenter": 274.2254,
        "meta_mean_anomaly": 160.8159,
        "meta_ephemeris_type": 0,
        "meta_classification_type": "U",
        "meta_norad_cat_id": 66558,
        "meta_element_set_no": 999,
        "meta_rev_at_epoch": 610,
        "meta_bstar": -0.045089911,
        "meta_mean_motion_dot": -0.02039341,
        "meta_mean_motion_ddot": 0,
        "tle_line1": "1 66558U 25268B   25358.00001157 -.02039341  00000+0 -45090-1 0  9992",
        "tle_line2": "2 66558  43.0006  55.2389 0001427 274.2254 160.8159 15.46485002  6109"
      },
      "geometry": {
        "type": "Point",
        "coordinates": [
          49.62180103274613,
          -3.9041392955335947
        ]
      }
    },
    {
      "type": "Feature",
      "properties": {
        "norad_id": 66559,
        "name": "STARLINK-35419",
        "group": "last-30-days",
        "lat": 20.504174539692166,
        "lon": 77.39337606059429,
        "alt_km": 412.4789311450113,
        "timestamp": "2025-12-24T05:51:18.323435+00:00",
        "meta_object_name": "STARLINK-35419",
        "meta_object_id": "2025-268C",
        "meta_epoch": "2025-12-24T00:00:00.999648",
        "meta_mean_motion": 15.51623628,
        "meta_eccentricity": 0.00013768,
        "meta_inclination": 43.0004,
        "meta_ra_of_asc_node": 55.1614,
        "meta_arg_of_pericenter": 278.1217,
        "meta_mean_anomaly": 189.0311,
        "meta_ephemeris_type": 0,
        "meta_classification_type": "U",
        "meta_norad_cat_id": 66559,
        "meta_element_set_no": 999,
        "meta_rev_at_epoch": 610,
        "meta_bstar": -0.037782747,
        "meta_mean_motion_dot": -0.02050025,
        "meta_mean_motion_ddot": 0,
        "tle_line1": "1 66559U 25268C   25358.00001157 -.02050025  00000+0 -37783-1 0  9995",
        "tle_line2": "2 66559  43.0004  55.1614 0001376 278.1217 189.0311 15.51623628  6100"
      },
      "geometry": {
        "type": "Point",
        "coordinates": [
          77.39337606059429,
          20.504174539692166
        ]
      }
    },
    {
      "type": "Feature",
      "properties": {
        "norad_id": 66560,
        "name": "STARLINK-35411",
        "group": "last-30-days",
        "lat": 23.154831946369445,
        "lon": 81.04066164782792,
        "alt_km": 410.4790162159825,
        "timestamp": "2025-12-24T05:51:18.323473+00:00",
        "meta_object_name": "STARLINK-35411",
        "meta_object_id": "2025-268D",
        "meta_epoch": "2025-12-24T00:00:00.999648",
        "meta_mean_motion": 15.52142228,
        "meta_eccentricity": 0.00014153,
        "meta_inclination": 43.0011,
        "meta_ra_of_asc_node": 55.1521,
        "meta_arg_of_pericenter": 283.4406,
        "meta_mean_anomaly": 187.5522,
        "meta_ephemeris_type": 0,
        "meta_classification_type": "U",
        "meta_norad_cat_id": 66560,
        "meta_element_set_no": 999,
        "meta_rev_at_epoch": 610,
        "meta_bstar": -0.036609925,
        "meta_mean_motion_dot": -0.02026937,
        "meta_mean_motion_ddot": 0,
        "tle_line1": "1 66560U 25268D   25358.00001157 -.02026937  00000+0 -36610-1 0  9990",
        "tle_line2": "2 66560  43.0011  55.1521 0001415 283.4406 187.5522 15.52142228  6100"
      },
      "geometry": {
        "type": "Point",
        "coordinates": [
          81.04066164782792,
          23.154831946369445
        ]
      }
    }
  ]
}